SHIYAN-24C 03           
1 58652U 23206C   26068.89147317  .00001350  00000+0  11928-3 0  9993
2 58652  97.3969  41.7507 0002411  66.6237 293.5240 14.97896938120432
STARLINK-33901          
1 63878U 25094Q   26068.85112424  .00011919  00000+0  10054-2 0  9993
2 63878  70.0016 234.1936 0003091 241.9102 118.1745 14.98313761 47223
